NORAD_CAT_ID,OBJECT_NAME,OBJECT_TYPE,EPOCH,MEAN_MOTION,ECCENTRICITY,INCLINATION,RA_OF_ASC_NODE,ARG_OF_PERICENTER,MEAN_ANOMALY,BSTAR,MEAN_MOTION_DOT,MEAN_MOTION_DDOT,TLE_LINE0,TLE_LINE1,TLE_LINE2,SEMIMAJOR_AXIS,PERIOD,APOGEE,PERIGEE,DECAYED
51750.0,STARLINK-3505,PAYLOAD,2023-02-21 20:40:15,15.08865174,0.0001095,53.2126,260.3153,106.0019,254.1094,0.00044156,6.751e-05,0.0,0 STARLINK-3505,1 51750U 22016AN  23052.86128628  .00006751  00000-0  44156-3 0  9994,2 51750  53.2126 260.3153 0001095 106.0019 254.1094 15.08865174 55854,6917.803,95.436,540.426,538.911,0.0
51750.0,STARLINK-3505,PAYLOAD,2023-02-22 06:12:33,15.08856477,9.73e-05,53.2115,258.53,99.4931,260.6171,8.9695e-05,1.141e-05,0.0,0 STARLINK-3505,1 51750U 22016AN  23053.25872317  .00001141  00000-0  89695-4 0  9995,2 51750  53.2115 258.5300 0000973  99.4931 260.6171 15.08856477 57033,6917.83,95.437,540.368,539.022,0.0
51750.0,STARLINK-3505,PAYLOAD,2023-02-22 14:09:29,15.08845325,0.0001495,53.2132,257.0436,104.0089,256.107,-0.00014608,-2.612e-05,0.0,0 STARLINK-3505,1 51750U 22016AN  23053.58992570 -.00002612  00000-0 -14608-3 0  9992,2 51750  53.2132 257.0436 0001495 104.0089 256.1070 15.08845325 55961,6917.864,95.437,540.763,538.695,0.0
51750.0,STARLINK-3505,PAYLOAD,2023-02-22 22:06:25,15.08841807,0.0001312,53.2137,255.5576,99.857,260.257,-0.00013538,-2.442e-05,0.0,0 STARLINK-3505,1 51750U 22016AN  23053.92112704 -.00002442  00000-0 -13538-3 0  9995,2 51750  53.2137 255.5576 0001312  99.8570 260.2570 15.08841807 56017,6917.875,95.437,540.647,538.832,0.0
51750.0,STARLINK-3505,PAYLOAD,2023-02-23 14:00:16,15.08843202,0.000127,53.214,252.5835,97.0663,263.0474,-1.4322e-05,-5.16e-06,0.0,0 STARLINK-3505,1 51750U 22016AN  23054.58352675 -.00000516  00000-0 -14322-4 0  9994,2 51750  53.2140 252.5835 0001270  97.0663 263.0474 15.08843202 56118,6917.871,95.437,540.614,538.857,0.0
51750.0,STARLINK-3505,PAYLOAD,2023-02-23 20:21:49,15.0884748,0.0001236,53.2146,251.3941,99.1703,260.9429,6.0713e-05,6.79e-06,0.0,0 STARLINK-3505,1 51750U 22016AN  23054.84848478  .00000679  00000-0  60713-4 0  9997,2 51750  53.2146 251.3941 0001236  99.1703 260.9429 15.08847480 57275,6917.858,95.437,540.578,538.867,0.0
51750.0,STARLINK-3505,PAYLOAD,2023-02-24 13:51:04,15.08836011,0.0001179,53.2135,248.1218,88.9202,271.1925,6.8745e-05,8.06e-06,0.0,0 STARLINK-3505,1 51750U 22016AN  23055.57713018  .00000806  00000-0  68745-4 0  9994,2 51750  53.2135 248.1218 0001179  88.9202 271.1925 15.08836011 56261,6917.893,95.438,540.573,538.942,0.0
51750.0,STARLINK-3505,PAYLOAD,2023-02-24 21:47:59,15.08840342,0.0001141,53.2132,246.6347,85.4936,274.6187,0.0001402,1.944e-05,0.0,0 STARLINK-3505,1 51750U 22016AN  23055.90832939  .00001944  00000-0  14020-3 0  9995,2 51750  53.2132 246.6347 0001141  85.4936 274.6187 15.08840342 56315,6917.879,95.438,540.534,538.955,0.0
51750.0,STARLINK-3505,PAYLOAD,2023-02-25 05:44:55,15.08840485,0.000117,53.2136,245.1479,83.6271,276.4854,0.0001209,1.637e-05,0.0,0 STARLINK-3505,1 51750U 22016AN  23056.23952996  .00001637  00000-0  12090-3 0  9992,2 51750  53.2136 245.1479 0001170  83.6271 276.4854 15.08840485 56367,6917.879,95.438,540.553,538.935,0.0
51750.0,STARLINK-3505,PAYLOAD,2023-02-25 18:28:00,15.08838392,0.000112,53.2137,242.7688,83.0837,277.0283,0.00021736,3.173e-05,0.0,0 STARLINK-3505,1 51750U 22016AN  23056.76945181  .00003173  00000-0  21736-3 0  9992,2 51750  53.2137 242.7688 0001120  83.0837 277.0283 15.08838392 57560,6917.885,95.438,540.525,538.976,0.0
51750.0,STARLINK-3505,PAYLOAD,2023-02-25 21:38:46,15.0883908,0.0001155,53.2137,242.1739,82.7868,277.3255,0.00027441,4.082e-05,0.0,0 STARLINK-3505,1 51750U 22016AN  23056.90193138  .00004082  00000-0  27441-3 0  9994,2 51750  53.2137 242.1739 0001155  82.7868 277.3255 15.08839080 56464,6917.883,95.438,540.547,538.949,0.0
51750.0,STARLINK-3505,PAYLOAD,2023-02-26 11:57:14,15.08842428,0.0001172,53.2137,239.4977,80.8646,279.2479,0.00015101,2.116e-05,0.0,0 STARLINK-3505,1 51750U 22016AN  23057.49808909  .00002116  00000-0  15101-3 0  9994,2 51750  53.2137 239.4977 0001172  80.8646 279.2479 15.08842428 56558,6917.873,95.437,540.549,538.927,0.0
51750.0,STARLINK-3505,PAYLOAD,2023-02-26 19:54:10,15.08850365,0.0001184,53.2136,238.0107,81.9275,278.1851,0.00021309,3.106e-05,0.0,0 STARLINK-3505,1 51750U 22016AN  23057.82928418  .00003106  00000-0  21309-3 0  9996,2 51750  53.2136 238.0107 0001184  81.9275 278.1851 15.08850365 57721,6917.849,95.437,540.533,538.895,0.0
51750.0,STARLINK-3505,PAYLOAD,2023-02-26 21:29:33,15.08850475,0.0001126,53.2131,237.7135,75.4753,284.6364,0.00023522,3.459e-05,0.0,0 STARLINK-3505,1 51750U 22016AN  23057.89552400  .00003459  00000-0  23522-3 0  9997,2 51750  53.2131 237.7135 0001126  75.4753 284.6364 15.08850475 56618,6917.848,95.437,540.492,538.934,0.0
51750.0,STARLINK-3505,PAYLOAD,2023-02-27 11:48:01,15.08844483,0.0001322,53.2137,235.0341,92.8945,267.2198,0.00012927,1.77e-05,0.0,0 STARLINK-3505,1 51750U 22016AN  23058.49168658  .00001770  00000-0  12927-3 0  9993,2 51750  53.2137 235.0341 0001322  92.8945 267.2198 15.08844483 57826,6917.867,95.437,540.646,538.817,0.0
51750.0,STARLINK-3505,PAYLOAD,2023-02-27 18:09:33,15.0885826,0.0001155,53.2134,233.8473,87.8255,272.287,0.00032214,4.845e-05,0.0,0 STARLINK-3505,1 51750U 22016AN  23058.75663933  .00004845  00000-0  32214-3 0  9995,2 51750  53.2134 233.8473 0001155  87.8255 272.2870 15.08858260 57862,6917.825,95.436,540.489,538.891,0.0
51750.0,STARLINK-3505,PAYLOAD,2023-02-27 19:44:56,15.08857183,0.0001197,53.2134,233.549,89.3892,270.7237,0.00035656,5.394e-05,0.0,0 STARLINK-3505,1 51750U 22016AN  23058.82288030  .00005394  00000-0  35656-3 0  9997,2 51750  53.2134 233.5490 0001197  89.3892 270.7237 15.08857183 56758,6917.828,95.436,540.521,538.865,0.0
51750.0,STARLINK-3505,PAYLOAD,2023-02-28 11:38:49,15.08834494,0.0001451,53.2131,230.5749,89.1112,271.0046,-7.595e-05,-1.496e-05,0.0,0 STARLINK-3505,1 51750U 22016AN  23059.48528973 -.00001496  00000-0 -75950-4 0  9996,2 51750  53.2131 230.5749 0001451  89.1112 271.0046 15.08834494 56858,6917.897,95.438,540.766,538.758,0.0
51750.0,STARLINK-3505,PAYLOAD,2023-02-28 14:49:35,15.08828798,0.0001251,53.213,229.9809,63.3725,296.7395,-0.00012905,-2.34e-05,0.0,0 STARLINK-3505,1 51750U 22016AN  23059.61777478 -.00002340  00000-0 -12905-3 0  9996,2 51750  53.2130 229.9809 0001251  63.3725 296.7395 15.08828798 57995,6917.915,95.438,540.645,538.914,0.0
51750.0,STARLINK-3505,PAYLOAD,2023-02-28 19:35:45,15.08830482,0.000131,53.2137,229.0889,77.1325,282.9814,-0.00010887,-2.02e-05,0.0,0 STARLINK-3505,1 51750U 22016AN  23059.81649440 -.00002020  00000-0 -10887-3 0  9997,2 51750  53.2137 229.0889 0001310  77.1325 282.9814 15.08830482 56902,6917.909,95.438,540.681,538.868,0.0
51750.0,STARLINK-3505,PAYLOAD,2023-03-01 11:29:36,15.08833379,0.0001259,53.2139,226.1152,76.3167,283.7965,-2.5446e-05,-6.93e-06,0.0,0 STARLINK-3505,1 51750U 22016AN  23060.47889675 -.00000693  00000-0 -25446-4 0  9999,2 51750  53.2139 226.1152 0001259  76.3167 283.7965 15.08833379 58122,6917.901,95.438,540.637,538.895,0.0
51750.0,STARLINK-3505,PAYLOAD,2023-03-01 17:51:08,15.08841006,0.0001233,53.2139,224.9261,74.1545,285.9583,9.627e-05,1.245e-05,0.0,0 STARLINK-3505,1 51750U 22016AN  23060.74385353  .00001245  00000-0  96270-4 0  9998,2 51750  53.2139 224.9261 0001233  74.1545 285.9583 15.08841006 57043,6917.877,95.437,540.595,538.889,0.0
51750.0,STARLINK-3505,PAYLOAD,2023-03-02 17:41:56,15.08841511,0.0001272,53.2147,220.4671,67.5059,292.6068,0.00028762,4.293e-05,0.0,0 STARLINK-3505,1 51750U 22016AN  23061.73745761  .00004293  00000-0  28762-3 0  9997,2 51750  53.2147 220.4671 0001272  67.5059 292.6068 15.08841511 57197,6917.876,95.437,540.621,538.861,0.0
51750.0,STARLINK-3505,PAYLOAD,2023-03-03 11:11:10,15.0884575,0.0001079,53.2139,217.1946,72.0259,288.0851,0.00011243,1.502e-05,0.0,0 STARLINK-3505,1 51750U 22016AN  23062.46609435  .00001502  00000-0  11243-3 0  9991,2 51750  53.2139 217.1946 0001079  72.0259 288.0851 15.08845750 58429,6917.863,95.437,540.474,538.981,0.0
51750.0,STARLINK-3505,PAYLOAD,2023-03-03 19:08:05,15.08858945,0.0001159,53.2139,215.7079,72.8404,287.2715,0.00028918,4.32e-05,0.0,0 STARLINK-3505,1 51750U 22016AN  23062.79728617  .00004320  00000-0  28918-3 0  9999,2 51750  53.2139 215.7079 0001159  72.8404 287.2715 15.08858945 58474,6917.822,95.436,540.489,538.886,0.0
51750.0,STARLINK-3505,PAYLOAD,2023-03-04 09:26:34,15.0883982,0.0001669,53.2139,213.0316,85.3893,274.729,-3.6439e-05,-8.68e-06,0.0,0 STARLINK-3505,1 51750U 22016AN  23063.39345347 -.00000868  00000-0 -36439-4 0  9994,2 51750  53.2139 213.0316 0001669  85.3893 274.7290 15.08839820 58566,6917.881,95.438,540.901,538.591,0.0
51750.0,STARLINK-3505,PAYLOAD,2023-03-04 11:01:57,15.08835954,0.0001348,53.2152,212.7347,90.4926,269.6221,-0.00011471,-2.113e-05,0.0,0 STARLINK-3505,1 51750U 22016AN  23063.45969433 -.00002113  00000-0 -11471-3 0  9992,2 51750  53.2152 212.7347 0001348  90.4926 269.6221 15.08835954 57457,6917.893,95.438,540.69,538.825,0.0
51750.0,STARLINK-3505,PAYLOAD,2023-03-04 18:58:52,15.08847786,0.0001352,53.2132,211.2457,88.1674,271.9473,0.00011403,1.528e-05,0.0,0 STARLINK-3505,1 51750U 22016AN  23063.79088982  .00001528  00000-0  11403-3 0  9992,2 51750  53.2132 211.2457 0001352  88.1674 271.9473 15.08847786 57507,6917.857,95.437,540.657,538.786,0.0
51750.0,STARLINK-3505,PAYLOAD,2023-03-05 07:41:58,15.08829129,0.0001301,53.2132,208.8674,101.5123,258.6015,-0.00012756,-2.317e-05,0.0,0 STARLINK-3505,1 51750U 22016AN  23064.32081873 -.00002317  00000-0 -12756-3 0  9995,2 51750  53.2132 208.8674 0001301 101.5123 258.6015 15.08829129 58701,6917.914,95.438,540.679,538.879,0.0
51750.0,STARLINK-3505,PAYLOAD,2023-03-06 02:46:36,15.0884601,8.56e-05,53.2145,205.2991,91.334,268.7751,0.00036318,5.498e-05,0.0,0 STARLINK-3505,1 51750U 22016AN  23065.11569455  .00005498  00000-0  36318-3 0  9991,2 51750  53.2145 205.2991 0000856  91.3340 268.7751 15.08846010 58829,6917.862,95.437,540.319,539.135,0.0
